STARLINK-37001          
1 68330U 26059K   26093.78430441  .00537266  00000+0  25439-2 0  9996
2 68330  53.1599 237.0471 0000864  94.4984 265.6138 15.81007337  1944
STARLINK-36932          
1 68331U 26059L   26093.78355323  .00446305  00000+0  21408-2 0  9997
2 68331  53.1599 237.0419 0001068 131.6929 228.4185 15.80964848  1944
STARLINK-37205          
1 68332U 26059M   26093.78280452  .00513574  00000+0  24398-2 0  9992
2 68332  53.1596 237.0368 0001270  55.1309 304.9833 15.80998336  1941
STARLINK-37180          
1 68333U 26059N   26093.78205856  .00448410  00000+0  21511-2 0  9998
2 68333  53.1597 237.0315 0001245 145.0278 215.0827 15.80957496  1948
STARLINK-37191          
1 68334U 26059P   26093.78131034  .00522883  00000+0  24842-2 0  9992
2 68334  53.1599 237.0268 0001281 147.2418 212.8685 15.80972872  1940
STARLINK-37217          
1 68335U 26059Q   26093.78054156  .00454334  00000+0  21724-2 0  9993
2 68335  53.1596 237.0216 0000530  25.0417 335.0631 15.81011210  1949
STARLINK-37143          
1 68336U 26059R   26093.77981107  .00522624  00000+0  24836-2 0  9993
2 68336  53.1598 237.0168 0001081 139.3033 220.8071 15.80967214  1945
STARLINK-36237          
1 68337U 26059S   26093.77904018  .00428361  00000+0  20532-2 0  9992
2 68337  53.1597 237.0116 0001276  53.5873 306.5268 15.81028462  1947
STARLINK-36254          
1 68338U 26059T   26093.77756115  .00370398  00000+0  17965-2 0  9998
2 68338  53.1600 237.0020 0001308  57.9000 302.2149 15.80925039  1949
STARLINK-37200          
1 68339U 26059U   26093.77831204  .00485472  00000+0  23190-2 0  9999
2 68339  53.1600 237.0066 0000974 109.3883 250.7245 15.80951831  1942
STARLINK-37185          
1 68340U 26059V   26093.77678990  .00220188  00000+0  10870-2 0  9994
2 68340  53.1601 236.9968 0000644  59.8772 300.2314 15.80951614  1941
STARLINK-37181          
1 68341U 26059W   26093.83927553  .00369728  00000+0  17905-2 0  9994
2 68341  53.1600 236.6744 0000547 131.9209 228.1861 15.80958516  1953
