CCSDS_OMM_VERS = 2.0
CREATION_DATE  = 
ORIGINATOR     = 

OBJECT_NAME    = STARLINK-37001
OBJECT_ID      = 2026-059K
CENTER_NAME    = EARTH
REF_FRAME      = TEME
TIME_SYSTEM    = UTC
MEAN_ELEMENT_THEORY = SGP/SGP4

EPOCH          = 2026-04-03T18:49:23.901024
MEAN_MOTION    = 15.81007337
ECCENTRICITY   = .00008645
INCLINATION    = 53.1599
RA_OF_ASC_NODE = 237.0471
ARG_OF_PERICENTER = 94.4984
MEAN_ANOMALY   = 265.6138

EPHEMERIS_TYPE = 0
CLASSIFICATION_TYPE = U
NORAD_CAT_ID   = 68330
ELEMENT_SET_NO = 999
REV_AT_EPOCH   = 194
BSTAR          = .25439301E-2
MEAN_MOTION_DOT = .537266E-2
MEAN_MOTION_DDOT = 0

CCSDS_OMM_VERS = 2.0
CREATION_DATE  = 
ORIGINATOR     = 

OBJECT_NAME    = STARLINK-36932
OBJECT_ID      = 2026-059L
CENTER_NAME    = EARTH
REF_FRAME      = TEME
TIME_SYSTEM    = UTC
MEAN_ELEMENT_THEORY = SGP/SGP4

EPOCH          = 2026-04-03T18:48:18.999072
MEAN_MOTION    = 15.80964848
ECCENTRICITY   = .00010688
INCLINATION    = 53.1599
RA_OF_ASC_NODE = 237.0419
ARG_OF_PERICENTER = 131.6929
MEAN_ANOMALY   = 228.4185

EPHEMERIS_TYPE = 0
CLASSIFICATION_TYPE = U
NORAD_CAT_ID   = 68331
ELEMENT_SET_NO = 999
REV_AT_EPOCH   = 194
BSTAR          = .21408064E-2
MEAN_MOTION_DOT = .446305E-2
MEAN_MOTION_DDOT = 0

CCSDS_OMM_VERS = 2.0
CREATION_DATE  = 
ORIGINATOR     = 

OBJECT_NAME    = STARLINK-37205
OBJECT_ID      = 2026-059M
CENTER_NAME    = EARTH
REF_FRAME      = TEME
TIME_SYSTEM    = UTC
MEAN_ELEMENT_THEORY = SGP/SGP4

EPOCH          = 2026-04-03T18:47:14.310528
MEAN_MOTION    = 15.80998336
ECCENTRICITY   = .00012706
INCLINATION    = 53.1596
RA_OF_ASC_NODE = 237.0368
ARG_OF_PERICENTER = 55.1309
MEAN_ANOMALY   = 304.9833

EPHEMERIS_TYPE = 0
CLASSIFICATION_TYPE = U
NORAD_CAT_ID   = 68332
ELEMENT_SET_NO = 999
REV_AT_EPOCH   = 194
BSTAR          = .24398298E-2
MEAN_MOTION_DOT = .513574E-2
MEAN_MOTION_DDOT = 0

CCSDS_OMM_VERS = 2.0
CREATION_DATE  = 
ORIGINATOR     = 

OBJECT_NAME    = STARLINK-37180
OBJECT_ID      = 2026-059N
CENTER_NAME    = EARTH
REF_FRAME      = TEME
TIME_SYSTEM    = UTC
MEAN_ELEMENT_THEORY = SGP/SGP4

EPOCH          = 2026-04-03T18:46:09.859584
MEAN_MOTION    = 15.80957496
ECCENTRICITY   = .00012452
INCLINATION    = 53.1597
RA_OF_ASC_NODE = 237.0315
ARG_OF_PERICENTER = 145.0278
MEAN_ANOMALY   = 215.0827

EPHEMERIS_TYPE = 0
CLASSIFICATION_TYPE = U
NORAD_CAT_ID   = 68333
ELEMENT_SET_NO = 999
REV_AT_EPOCH   = 194
BSTAR          = .21511132E-2
MEAN_MOTION_DOT = .44841E-2
MEAN_MOTION_DDOT = 0

CCSDS_OMM_VERS = 2.0
CREATION_DATE  = 
ORIGINATOR     = 

OBJECT_NAME    = STARLINK-37191
OBJECT_ID      = 2026-059P
CENTER_NAME    = EARTH
REF_FRAME      = TEME
TIME_SYSTEM    = UTC
MEAN_ELEMENT_THEORY = SGP/SGP4

EPOCH          = 2026-04-03T18:45:05.213376
MEAN_MOTION    = 15.80972872
ECCENTRICITY   = .00012819
INCLINATION    = 53.1599
RA_OF_ASC_NODE = 237.0268
ARG_OF_PERICENTER = 147.2418
MEAN_ANOMALY   = 212.8685

EPHEMERIS_TYPE = 0
CLASSIFICATION_TYPE = U
NORAD_CAT_ID   = 68334
ELEMENT_SET_NO = 999
REV_AT_EPOCH   = 194
BSTAR          = .24841778E-2
MEAN_MOTION_DOT = .522883E-2
MEAN_MOTION_DDOT = 0

CCSDS_OMM_VERS = 2.0
CREATION_DATE  = 
ORIGINATOR     = 

OBJECT_NAME    = STARLINK-37217
OBJECT_ID      = 2026-059Q
CENTER_NAME    = EARTH
REF_FRAME      = TEME
TIME_SYSTEM    = UTC
MEAN_ELEMENT_THEORY = SGP/SGP4

EPOCH          = 2026-04-03T18:43:58.790784
MEAN_MOTION    = 15.81011210
ECCENTRICITY   = .00005305
INCLINATION    = 53.1596
RA_OF_ASC_NODE = 237.0216
ARG_OF_PERICENTER = 25.0417
MEAN_ANOMALY   = 335.0631

EPHEMERIS_TYPE = 0
CLASSIFICATION_TYPE = U
NORAD_CAT_ID   = 68335
ELEMENT_SET_NO = 999
REV_AT_EPOCH   = 194
BSTAR          = .21724296E-2
MEAN_MOTION_DOT = .454334E-2
MEAN_MOTION_DDOT = 0

CCSDS_OMM_VERS = 2.0
CREATION_DATE  = 
ORIGINATOR     = 

OBJECT_NAME    = STARLINK-37143
OBJECT_ID      = 2026-059R
CENTER_NAME    = EARTH
REF_FRAME      = TEME
TIME_SYSTEM    = UTC
MEAN_ELEMENT_THEORY = SGP/SGP4

EPOCH          = 2026-04-03T18:42:55.676448
MEAN_MOTION    = 15.80967214
ECCENTRICITY   = .0001081
INCLINATION    = 53.1598
RA_OF_ASC_NODE = 237.0168
ARG_OF_PERICENTER = 139.3033
MEAN_ANOMALY   = 220.8071

EPHEMERIS_TYPE = 0
CLASSIFICATION_TYPE = U
NORAD_CAT_ID   = 68336
ELEMENT_SET_NO = 999
REV_AT_EPOCH   = 194
BSTAR          = .24836129E-2
MEAN_MOTION_DOT = .522624E-2
MEAN_MOTION_DDOT = 0

CCSDS_OMM_VERS = 2.0
CREATION_DATE  = 
ORIGINATOR     = 

OBJECT_NAME    = STARLINK-36237
OBJECT_ID      = 2026-059S
CENTER_NAME    = EARTH
REF_FRAME      = TEME
TIME_SYSTEM    = UTC
MEAN_ELEMENT_THEORY = SGP/SGP4

EPOCH          = 2026-04-03T18:41:49.071552
MEAN_MOTION    = 15.81028462
ECCENTRICITY   = .00012765
INCLINATION    = 53.1597
RA_OF_ASC_NODE = 237.0116
ARG_OF_PERICENTER = 53.5873
MEAN_ANOMALY   = 306.5268

EPHEMERIS_TYPE = 0
CLASSIFICATION_TYPE = U
NORAD_CAT_ID   = 68337
ELEMENT_SET_NO = 999
REV_AT_EPOCH   = 194
BSTAR          = .20532343E-2
MEAN_MOTION_DOT = .428361E-2
MEAN_MOTION_DDOT = 0

CCSDS_OMM_VERS = 2.0
CREATION_DATE  = 
ORIGINATOR     = 

OBJECT_NAME    = STARLINK-36254
OBJECT_ID      = 2026-059T
CENTER_NAME    = EARTH
REF_FRAME      = TEME
TIME_SYSTEM    = UTC
MEAN_ELEMENT_THEORY = SGP/SGP4

EPOCH          = 2026-04-03T18:39:41.283360
MEAN_MOTION    = 15.80925039
ECCENTRICITY   = .00013084
INCLINATION    = 53.1600
RA_OF_ASC_NODE = 237.0020
ARG_OF_PERICENTER = 57.9000
MEAN_ANOMALY   = 302.2149

EPHEMERIS_TYPE = 0
CLASSIFICATION_TYPE = U
NORAD_CAT_ID   = 68338
ELEMENT_SET_NO = 999
REV_AT_EPOCH   = 194
BSTAR          = .17965123E-2
MEAN_MOTION_DOT = .370398E-2
MEAN_MOTION_DDOT = 0

CCSDS_OMM_VERS = 2.0
CREATION_DATE  = 
ORIGINATOR     = 

OBJECT_NAME    = STARLINK-37200
OBJECT_ID      = 2026-059U
CENTER_NAME    = EARTH
REF_FRAME      = TEME
TIME_SYSTEM    = UTC
MEAN_ELEMENT_THEORY = SGP/SGP4

EPOCH          = 2026-04-03T18:40:46.160256
MEAN_MOTION    = 15.80951831
ECCENTRICITY   = .00009748
INCLINATION    = 53.1600
RA_OF_ASC_NODE = 237.0066
ARG_OF_PERICENTER = 109.3883
MEAN_ANOMALY   = 250.7245

EPHEMERIS_TYPE = 0
CLASSIFICATION_TYPE = U
NORAD_CAT_ID   = 68339
ELEMENT_SET_NO = 999
REV_AT_EPOCH   = 194
BSTAR          = .23190314E-2
MEAN_MOTION_DOT = .485472E-2
MEAN_MOTION_DDOT = 0

CCSDS_OMM_VERS = 2.0
CREATION_DATE  = 
ORIGINATOR     = 

OBJECT_NAME    = STARLINK-37185
OBJECT_ID      = 2026-059V
CENTER_NAME    = EARTH
REF_FRAME      = TEME
TIME_SYSTEM    = UTC
MEAN_ELEMENT_THEORY = SGP/SGP4

EPOCH          = 2026-04-03T18:38:34.647360
MEAN_MOTION    = 15.80951614
ECCENTRICITY   = .00006442
INCLINATION    = 53.1601
RA_OF_ASC_NODE = 236.9968
ARG_OF_PERICENTER = 59.8772
MEAN_ANOMALY   = 300.2314

EPHEMERIS_TYPE = 0
CLASSIFICATION_TYPE = U
NORAD_CAT_ID   = 68340
ELEMENT_SET_NO = 999
REV_AT_EPOCH   = 194
BSTAR          = .10869566E-2
MEAN_MOTION_DOT = .220188E-2
MEAN_MOTION_DDOT = 0

CCSDS_OMM_VERS = 2.0
CREATION_DATE  = 
ORIGINATOR     = 

OBJECT_NAME    = STARLINK-37181
OBJECT_ID      = 2026-059W
CENTER_NAME    = EARTH
REF_FRAME      = TEME
TIME_SYSTEM    = UTC
MEAN_ELEMENT_THEORY = SGP/SGP4

EPOCH          = 2026-04-03T20:08:33.405792
MEAN_MOTION    = 15.80958516
ECCENTRICITY   = .00005476
INCLINATION    = 53.1600
RA_OF_ASC_NODE = 236.6744
ARG_OF_PERICENTER = 131.9209
MEAN_ANOMALY   = 228.1861

EPHEMERIS_TYPE = 0
CLASSIFICATION_TYPE = U
NORAD_CAT_ID   = 68341
ELEMENT_SET_NO = 999
REV_AT_EPOCH   = 195
BSTAR          = .1790545E-2
MEAN_MOTION_DOT = .369728E-2
MEAN_MOTION_DDOT = 0

